
    {
      "objectName": "STARLINK-32561",
      "objectId": "2024-213U",
      "noradId": 62026,
      "epochUtc": "2026-03-16T20:42:43.743456Z",
      "meanMotionRevPerDay": 15.30201175,
      "eccentricity": 0.0001575,
      "inclinationDeg": 53.1583,
      "raanDeg": 134.7643,
      "argPerigeeDeg": 87.4371,
      "meanAnomalyDeg": 272.681,
      "bstar": 0.00026691,
      "meanMotionDot": 0.00007554,
      "meanMotionDdot": 0,
      "elementSetNo": 999,
      "revAtEpoch": 7425
    },
    {
      "objectName": "STARLINK-32637",
      "objectId": "2024-216A",
      "noradId": 62032,
      "epochUtc": "2026-03-16T18:34:31.897056Z",
      "meanMotionRevPerDay": 15.2758019,
      "eccentricity": 0.0001567,
      "inclinationDeg": 43.0026,
      "raanDeg": 215.9291,
      "argPerigeeDeg": 260.4474,
      "meanAnomalyDeg": 99.6201,
      "bstar": 0.00053064,
      "meanMotionDot": 0.00014368,
      "meanMotionDdot": 0,
      "elementSetNo": 999,
      "revAtEpoch": 7496
    },
    {
      "objectName": "STARLINK-32615",
      "objectId": "2024-216C",
      "noradId": 62034,
      "epochUtc": "2026-03-16T19:30:02.002752Z",
      "meanMotionRevPerDay": 15.276053,
      "eccentricity": 0.0001491,
      "inclinationDeg": 42.9983,
      "raanDeg": 216.2108,
      "argPerigeeDeg": 285.061,
      "meanAnomalyDeg": 75.0077,
      "bstar": 0.00074953,
      "meanMotionDot": 0.00020437,
      "meanMotionDdot": 0,
      "elementSetNo": 999,
      "revAtEpoch": 7380
    },
    {
      "objectName": "STARLINK-32592",
      "objectId": "2024-216D",
      "noradId": 62035,
      "epochUtc": "2026-03-16T18:29:38.430816Z",
      "meanMotionRevPerDay": 15.2757439,
      "eccentricity": 0.0001349,
      "inclinationDeg": 42.9992,
      "raanDeg": 223.6787,
      "argPerigeeDeg": 269.5102,
      "meanAnomalyDeg": 90.5595,
      "bstar": 0.00082809,
      "meanMotionDot": 0.00022591,
      "meanMotionDdot": 0,
      "elementSetNo": 999,
      "revAtEpoch": 7488
    },
    {
      "objectName": "STARLINK-32225",
      "objectId": "2024-216E",
      "noradId": 62036,
      "epochUtc": "2026-03-16T16:27:16.494048Z",
      "meanMotionRevPerDay": 15.27590935,
      "eccentricity": 0.0001564,
      "inclinationDeg": 42.9973,
      "raanDeg": 216.9788,
      "argPerigeeDeg": 271.163,
      "meanAnomalyDeg": 88.9042,
      "bstar": 0.00072429,
      "meanMotionDot": 0.00019729,
      "meanMotionDdot": 0,
      "elementSetNo": 999,
      "revAtEpoch": 7501
    },
    {
      "objectName": "STARLINK-32477",
      "objectId": "2024-216G",
      "noradId": 62038,
      "epochUtc": "2026-03-16T20:00:01.999008Z",
      "meanMotionRevPerDay": 15.42698385,
      "eccentricity": 0.0015761,
      "inclinationDeg": 42.9956,
      "raanDeg": 209.2167,
      "argPerigeeDeg": 345.9295,
      "meanAnomalyDeg": 109.2848,
      "bstar": 0.0044385,
      "meanMotionDot": 0.00204041,
      "meanMotionDdot": 0,
      "elementSetNo": 999,
      "revAtEpoch": 586
    },
    {
      "objectName": "STARLINK-32456",
      "objectId": "2024-216K",
      "noradId": 62041,
      "epochUtc": "2026-03-16T18:10:41.372256Z",
      "meanMotionRevPerDay": 15.27585228,
      "eccentricity": 0.0001058,
      "inclinationDeg": 42.9999,
      "raanDeg": 216.6593,
      "argPerigeeDeg": 299.7481,
      "meanAnomalyDeg": 60.3266,
      "bstar": 0.00079055,
      "meanMotionDot": 0.00021559,
      "meanMotionDdot": 0,
      "elementSetNo": 999,
      "revAtEpoch": 7495
    },
    {
      "objectName": "STARLINK-32618",
      "objectId": "2024-216P",
      "noradId": 62045,
      "epochUtc": "2026-03-16T18:03:17.144064Z",
      "meanMotionRevPerDay": 15.27579349,
      "eccentricity": 0.0001503,
      "inclinationDeg": 42.9987,
      "raanDeg": 216.6172,
      "argPerigeeDeg": 260.2069,
      "meanAnomalyDeg": 99.8613,
      "bstar": 0.00063346,
      "meanMotionDot": 0.0001721,
      "meanMotionDdot": 0,
      "elementSetNo": 999,
      "revAtEpoch": 7495
    },
    {
      "objectName": "STARLINK-32598",
      "objectId": "2024-216Q",
      "noradId": 62046,
      "epochUtc": "2026-03-16T18:25:16.421088Z",
      "meanMotionRevPerDay": 15.27602421,
      "eccentricity": 0.0001515,
      "inclinationDeg": 43.0018,
      "raanDeg": 215.8754,
      "argPerigeeDeg": 286.539,
      "meanAnomalyDeg": 73.5295,
      "bstar": 0.00075428,
      "meanMotionDot": 0.00020566,
      "meanMotionDdot": 0,
      "elementSetNo": 999,
      "revAtEpoch": 7496
    },
    {
      "objectName": "STARLINK-32496",
      "objectId": "2024-216V",
      "noradId": 62051,
      "epochUtc": "2026-03-16T17:04:44.638464Z",
      "meanMotionRevPerDay": 15.27590887,
      "eccentricity": 0.0000994,
      "inclinationDeg": 42.997,
      "raanDeg": 224.0924,
      "argPerigeeDeg": 275.5165,
      "meanAnomalyDeg": 84.5573,
      "bstar": 0.0006692,
      "meanMotionDot": 0.00018204,
      "meanMotionDdot": 0,
      "elementSetNo": 999,
      "revAtEpoch": 7486
    },
    {
      "objectName": "STARLINK-32571",
      "objectId": "2024-216Z",
      "noradId": 62055,
      "epochUtc": "2026-03-16T18:19:43.381056Z",
      "meanMotionRevPerDay": 15.27596874,
      "eccentricity": 0.0001241,
      "inclinationDeg": 43.0014,
      "raanDeg": 215.8436,
      "argPerigeeDeg": 291.2851,
      "meanAnomalyDeg": 68.7868,
      "bstar": 0.00068773,
      "meanMotionDot": 0.0001872,
      "meanMotionDdot": 0,
      "elementSetNo": 999,
      "revAtEpoch": 7506
    },
    {
      "objectName": "STARLINK-33545",
      "objectId": "2024-220P",
      "noradId": 62101,
      "epochUtc": "2026-03-16T14:49:16.202496Z",
      "meanMotionRevPerDay": 15.27596042,
      "eccentricity": 0.0001376,
      "inclinationDeg": 43.0036,
      "raanDeg": 166.1681,
      "argPerigeeDeg": 290.9626,
      "meanAnomalyDeg": 69.1079,
      "bstar": 0.00062279,
      "meanMotionDot": 0.00016923,
      "meanMotionDdot": 0,
      "elementSetNo": 999,
      "revAtEpoch": 7408
    },
    {
      "objectName": "STARLINK-33562",
      "objectId": "2024-220Q",
      "noradId": 62102,
      "epochUtc": "2026-03-16T15:05:55.587840Z",
      "meanMotionRevPerDay": 15.27597279,
      "eccentricity": 0.0000307,
      "inclinationDeg": 43.0001,
      "raanDeg": 166.2579,
      "argPerigeeDeg": 260.2425,
      "meanAnomalyDeg": 99.8392,
      "bstar": 0.00081895,
      "meanMotionDot": 0.00022354,
      "meanMotionDdot": 0,
      "elementSetNo": 999,
      "revAtEpoch": 7408
    }