STARLINK-32561          
1 62026U 24213U   26075.86300629  .00007554  00000+0  26691-3 0  9999
2 62026  53.1583 134.7643 0001575  87.4371 272.6810 15.30201175 74258
STARLINK-32637          
1 62032U 24216A   26075.77398029  .00014368  00000+0  53064-3 0  9995
2 62032  43.0026 215.9291 0001567 260.4474  99.6201 15.27580190 74966
STARLINK-32615          
1 62034U 24216C   26075.81252318  .00020437  00000+0  74953-3 0  9996
2 62034  42.9983 216.2108 0001491 285.0610  75.0077 15.27605300 73802
STARLINK-32592          
1 62035U 24216D   26075.77058369  .00022591  00000+0  82809-3 0  9994
2 62035  42.9992 223.6787 0001349 269.5102  90.5595 15.27574390 74883
STARLINK-32225          
1 62036U 24216E   26075.68560757  .00019729  00000+0  72429-3 0  9990
2 62036  42.9973 216.9788 0001564 271.1630  88.9042 15.27590935 75010
STARLINK-32477          
1 62038U 24216G   26075.83335647  .00204041  00000+0  44385-2 0  9999
2 62038  42.9956 209.2167 0015761 345.9295 109.2848 15.42698385  5862
STARLINK-32456          
1 62041U 24216K   26075.75742329  .00021559  00000+0  79055-3 0  9997
2 62041  42.9999 216.6593 0001058 299.7481  60.3266 15.27585228 74956
STARLINK-32618          
1 62045U 24216P   26075.75228176  .00017210  00000+0  63346-3 0  9995
2 62045  42.9987 216.6172 0001503 260.2069  99.8613 15.27579349 74950
STARLINK-32598          
1 62046U 24216Q   26075.76755117  .00020566  00000+0  75428-3 0  9999
2 62046  43.0018 215.8754 0001515 286.5390  73.5295 15.27602421 74960
STARLINK-32496          
1 62051U 24216V   26075.71162776  .00018204  00000+0  66920-3 0  9996
2 62051  42.9970 224.0924 0000994 275.5165  84.5573 15.27590887 74862
STARLINK-32571          
1 62055U 24216Z   26075.76369654  .00018720  00000+0  68773-3 0  9990
2 62055  43.0014 215.8436 0001241 291.2851  68.7868 15.27596874 75062
STARLINK-33545          
1 62101U 24220P   26075.61754864  .00016923  00000+0  62279-3 0  9990
2 62101  43.0036 166.1681 0001376 290.9626  69.1079 15.27596042 74080
STARLINK-33562          
1 62102U 24220Q   26075.62911560  .00022354  00000+0  81895-3 0  9990
2 62102  43.0001 166.2579 0000307 260.2425  99.8392 15.27597279 74081
